[{"OBJECT_NAME":"TIANMU-1 11","OBJECT_ID":"2023-205A","EPOCH":"2026-03-10T00:04:04.804896","MEAN_MOTION":15.25886825,"ECCENTRICITY":0.00089558,"INCLINATION":97.3549,"RA_OF_ASC_NODE":92.1484,"ARG_OF_PERICENTER":7.2987,"MEAN_ANOMALY":352.838,"EPHEMERIS_TYPE":0,"CLASSIFICATION_TYPE":"U","NORAD_CAT_ID":58645,"ELEMENT_SET_NO":999,"REV_AT_EPOCH":12239,"BSTAR":0.00031315232,"MEAN_MOTION_DOT":7.963e-5,"MEAN_MOTION_DDOT":0},{"OBJECT_NAME":"STARLINK-35870","OBJECT_ID":"2025-268R","EPOCH":"2026-03-08T11:53:59.419104","MEAN_MOTION":15.27602843,"ECCENTRICITY":1.431e-5,"INCLINATION":43.001,"RA_OF_ASC_NODE":354.1122,"ARG_OF_PERICENTER":225.0235,"MEAN_ANOMALY":135.0605,"EPHEMERIS_TYPE":0,"CLASSIFICATION_TYPE":"U","NORAD_CAT_ID":66572,"ELEMENT_SET_NO":999,"REV_AT_EPOCH":1777,"BSTAR":5.097385e-5,"MEAN_MOTION_DOT":1.142e-5,"MEAN_MOTION_DDOT":0}]
